NORAD_CAT_ID,OBJECT_NAME,OBJECT_TYPE,EPOCH,MEAN_MOTION,ECCENTRICITY,INCLINATION,RA_OF_ASC_NODE,ARG_OF_PERICENTER,MEAN_ANOMALY,BSTAR,MEAN_MOTION_DOT,MEAN_MOTION_DDOT,TLE_LINE0,TLE_LINE1,TLE_LINE2,SEMIMAJOR_AXIS,PERIOD,APOGEE,PERIGEE,DECAYED
49410.0,STARLINK-3147,PAYLOAD,2023-03-07 15:46:58,15.08858973,0.0002219,53.2153,118.3779,75.7815,284.3424,0.0018833,0.00029828,0.0,0 STARLINK-3147,1 49410U 21104C   23066.65761759  .00029828  00000-0  18833-2 0  9993,2 49410  53.2153 118.3779 0002219  75.7815 284.3424 15.08858973 73957,6917.822,95.436,541.222,538.152,0.0
49410.0,STARLINK-3147,PAYLOAD,2023-03-07 20:33:07,15.0883621,6.84e-05,53.2146,117.488,107.6773,252.4294,0.00015679,2.208e-05,0.0,0 STARLINK-3147,1 49410U 21104C   23066.85633584  .00002208  00000-0  15679-3 0  9998,2 49410  53.2146 117.4880 0000684 107.6773 252.4294 15.08836210 72897,6917.892,95.438,540.23,539.284,0.0
49410.0,STARLINK-3147,PAYLOAD,2023-03-08 02:54:40,15.0884754,0.0001315,53.2139,116.2972,97.5634,262.5507,0.0012335,0.00019402,0.0,0 STARLINK-3147,1 49410U 21104C   23067.12129926  .00019402  00000-0  12335-2 0  9998,2 49410  53.2139 116.2972 0001315  97.5634 262.5507 15.08847540 74027,6917.857,95.437,540.632,538.813,0.0
49410.0,STARLINK-3147,PAYLOAD,2023-03-08 20:23:54,15.0886671,0.0002045,53.2133,113.0261,93.9595,266.1631,0.0020891,0.00033142,0.0,0 STARLINK-3147,1 49410U 21104C   23067.84993682  .00033142  00000-0  20891-2 0  9998,2 49410  53.2133 113.0261 0002045  93.9595 266.1631 15.08866710 74134,6917.799,95.436,541.078,538.249,0.0
49410.0,STARLINK-3147,PAYLOAD,2023-03-09 09:06:59,15.08853078,0.0001815,53.2138,110.6462,106.1627,253.9565,0.0025656,0.00040795,0.0,0 STARLINK-3147,1 49410U 21104C   23068.37985746  .00040795  00000-0  25656-2 0  9995,2 49410  53.2138 110.6462 0001815 106.1627 253.9565 15.08853078 74214,6917.84,95.437,540.961,538.45,0.0
49410.0,STARLINK-3147,PAYLOAD,2023-03-09 20:14:42,15.08851617,0.0002323,53.213,108.5657,84.8008,275.3249,0.0020551,0.00032582,0.0,0 STARLINK-3147,1 49410U 21104C   23068.84354195  .00032582  00000-0  20551-2 0  9999,2 49410  53.2130 108.5657 0002323  84.8008 275.3249 15.08851617 73198,6917.845,95.437,541.317,538.103,0.0
49410.0,STARLINK-3147,PAYLOAD,2023-03-10 08:57:46,15.08856029,0.0001817,53.2129,106.1849,103.9992,256.1202,0.00054998,8.48e-05,0.0,0 STARLINK-3147,1 49410U 21104C   23069.37345520  .00008480  00000-0  54998-3 0  9993,2 49410  53.2129 106.1849 0001817 103.9992 256.1202 15.08856029 74363,6917.831,95.437,540.953,538.439,0.0
49410.0,STARLINK-3147,PAYLOAD,2023-03-10 12:08:32,15.08856839,0.0001894,53.2145,105.5879,111.4049,248.7145,0.0007211,0.00011212,0.0,0 STARLINK-3147,1 49410U 21104C   23069.50593447  .00011212  00000-0  72110-3 0  9994,2 49410  53.2145 105.5879 0001894 111.4049 248.7145 15.08856839 73292,6917.829,95.436,541.004,538.384,0.0
49410.0,STARLINK-3147,PAYLOAD,2023-03-11 07:13:11,15.0883133,0.000174,53.2136,102.0206,107.6981,252.4201,4.3058e-05,3.97e-06,0.0,0 STARLINK-3147,1 49410U 21104C   23070.30082528  .00000397  00000-0  43058-4 0  9999,2 49410  53.2136 102.0206 0001740 107.6981 252.4201 15.08831330 74509,6917.907,95.438,540.976,538.568,0.0
49410.0,STARLINK-3147,PAYLOAD,2023-03-11 11:59:20,15.08832208,0.0001655,53.2139,101.1275,98.4698,261.6482,0.00014887,2.082e-05,0.0,0 STARLINK-3147,1 49410U 21104C   23070.49954708  .00002082  00000-0  14887-3 0  9997,2 49410  53.2139 101.1275 0001655  98.4698 261.6482 15.08832208 73445,6917.904,95.438,540.914,538.624,0.0
49410.0,STARLINK-3147,PAYLOAD,2023-03-12 05:28:35,15.08836835,0.0001926,53.2151,97.8558,117.2276,242.8912,0.00040388,6.145e-05,0.0,0 STARLINK-3147,1 49410U 21104C   23071.22819037  .00006145  00000-0  40388-3 0  9993,2 49410  53.2151  97.8558 0001926 117.2276 242.8912 15.08836835 73558,6917.89,95.438,541.087,538.423,0.0
49410.0,STARLINK-3147,PAYLOAD,2023-03-12 13:25:30,15.08852893,0.0002078,53.2149,96.3682,119.4596,240.6603,0.00073305,0.00011402,0.0,0 STARLINK-3147,1 49410U 21104C   23071.55938619  .00011402  00000-0  73305-3 0  9994,2 49410  53.2149  96.3682 0002078 119.4596 240.6603 15.08852893 74696,6917.841,95.437,541.144,538.268,0.0
49410.0,STARLINK-3147,PAYLOAD,2023-03-13 11:40:53,15.08854508,0.0002035,53.2156,92.2055,177.373,182.7273,0.0002046,2.971e-05,0.0,0 STARLINK-3147,1 49410U 21104C   23072.48673265  .00002971  00000-0  20460-3 0  9995,2 49410  53.2156  92.2055 0002035 177.3730 182.7273 15.08854508 74839,6917.836,95.437,541.109,538.293,0.0
49410.0,STARLINK-3147,PAYLOAD,2023-03-14 05:10:09,15.08833983,0.0001609,53.214,88.9372,83.1352,276.9823,-0.00013842,-2.49e-05,0.0,0 STARLINK-3147,1 49410U 21104C   23073.21538800 -.00002490  00000-0 -13842-3 0  9996,2 49410  53.2140  88.9372 0001609  83.1352 276.9823 15.08833983 74949,6917.899,95.438,540.877,538.651,0.0
49410.0,STARLINK-3147,PAYLOAD,2023-03-14 08:20:56,15.08834871,0.0001655,53.2156,88.3447,87.654,272.4642,-0.00014687,-2.624e-05,0.0,0 STARLINK-3147,1 49410U 21104C   23073.34787253 -.00002624  00000-0 -14687-3 0  9995,2 49410  53.2156  88.3447 0001655  87.6540 272.4642 15.08834871 73870,6917.896,95.438,540.906,538.616,0.0
49410.0,STARLINK-3147,PAYLOAD,2023-03-15 05:00:56,15.08842671,0.000141,53.2158,84.4773,96.313,263.8023,0.0003368,5.077e-05,0.0,0 STARLINK-3147,1 49410U 21104C   23074.20898638  .00005077  00000-0  33680-3 0  9998,2 49410  53.2158  84.4773 0001410  96.3130 263.8023 15.08842671 75092,6917.872,95.437,540.713,538.762,0.0
49410.0,STARLINK-3147,PAYLOAD,2023-03-15 12:57:51,15.08861832,0.0001449,53.2151,82.9893,94.7286,265.3871,0.000661,0.00010254,0.0,0 STARLINK-3147,1 49410U 21104C   23074.54018019  .00010254  00000-0  66100-3 0  9998,2 49410  53.2151  82.9893 0001449  94.7286 265.3871 15.08861832 74050,6917.814,95.436,540.681,538.676,0.0
49410.0,STARLINK-3147,PAYLOAD,2023-03-16 04:51:43,15.08841609,0.0001443,53.2153,80.0164,88.332,271.7837,9.849e-05,1.28e-05,0.0,0 STARLINK-3147,1 49410U 21104C   23075.20258798  .00001280  00000-0  98490-4 0  9999,2 49410  53.2153  80.0164 0001443  88.3320 271.7837 15.08841609 75249,6917.875,95.437,540.739,538.742,0.0
49410.0,STARLINK-3147,PAYLOAD,2023-03-16 11:13:15,15.08853128,0.0001378,53.2151,78.8268,91.1133,269.0017,0.00080835,0.00012605,0.0,0 STARLINK-3147,1 49410U 21104C   23075.46754427  .00012605  00000-0  80835-3 0  9993,2 49410  53.2151  78.8268 0001378  91.1133 269.0017 15.08853128 75281,6917.84,95.437,540.659,538.752,0.0
49410.0,STARLINK-3147,PAYLOAD,2023-03-16 12:48:38,15.08851738,0.0001403,53.2151,78.5291,96.3787,263.7365,0.00082033,0.00012796,0.0,0 STARLINK-3147,1 49410U 21104C   23075.53378428  .00012796  00000-0  82033-3 0  9997,2 49410  53.2151  78.5291 0001403  96.3787 263.7365 15.08851738 74208,6917.845,95.437,540.68,538.739,0.0
49410.0,STARLINK-3147,PAYLOAD,2023-03-16 17:34:48,15.08824075,0.0001137,53.2153,77.6369,90.9756,269.1366,-0.00015398,-2.736e-05,0.0,0 STARLINK-3147,1 49410U 21104C   23075.73250685 -.00002736  00000-0 -15398-3 0  9998,2 49410  53.2153  77.6369 0001137  90.9756 269.1366 15.08824075 75325,6917.929,95.439,540.581,539.007,0.0
49410.0,STARLINK-3147,PAYLOAD,2023-03-17 11:04:03,15.08840055,0.0001449,53.2152,74.366,81.7388,278.3769,0.0010163,0.00015923,0.0,0 STARLINK-3147,1 49410U 21104C   23076.46115564  .00015923  00000-0  10163-2 0  9999,2 49410  53.2152  74.3660 0001449  81.7388 278.3769 15.08840055 74343,6917.88,95.438,540.748,538.743,0.0
49410.0,STARLINK-3147,PAYLOAD,2023-03-17 17:25:36,15.08840898,0.0001475,53.2152,73.1762,82.2698,277.8462,0.00065344,0.00010127,0.0,0 STARLINK-3147,1 49410U 21104C   23076.72611590  .00010127  00000-0  65344-3 0  9991,2 49410  53.2152  73.1762 0001475  82.2698 277.8462 15.08840898 75476,6917.878,95.437,540.763,538.722,0.0
49410.0,STARLINK-3147,PAYLOAD,2023-03-18 10:54:50,15.08865385,0.0001476,53.2154,69.9047,83.5253,276.5907,0.00094972,0.0001487,0.0,0 STARLINK-3147,1 49410U 21104C   23077.45474828  .00014870  00000-0  94972-3 0  9991,2 49410  53.2154  69.9047 0001476  83.5253 276.5907 15.08865385 75589,6917.803,95.436,540.689,538.647,0.0
49410.0,STARLINK-3147,PAYLOAD,2023-03-19 05:59:27,15.08852716,0.000123,53.2159,66.3367,84.4564,275.6568,0.00049905,7.666e-05,0.0,0 STARLINK-3147,1 49410U 21104C   23078.24962806  .00007666  00000-0  49905-3 0  9998,2 49410  53.2159  66.3367 0001230  84.4564 275.6568 15.08852716 75704,6917.842,95.437,540.557,538.856,0.0
49410.0,STARLINK-3147,PAYLOAD,2023-03-19 10:45:37,15.08859323,0.0001257,53.216,65.4447,87.0753,273.0383,0.00081188,0.00012664,0.0,0 STARLINK-3147,1 49410U 21104C   23078.44834616  .00012664  00000-0  81188-3 0  9990,2 49410  53.2160  65.4447 0001257  87.0753 273.0383 15.08859323 74643,6917.821,95.436,540.556,538.817,0.0
49410.0,STARLINK-3147,PAYLOAD,2023-03-19 15:31:47,15.0883112,0.0001278,53.2156,64.5525,98.7288,261.3849,-0.00015212,-2.707e-05,0.0,0 STARLINK-3147,1 49410U 21104C   23078.64707177 -.00002707  00000-0 -15212-3 0  9997,2 49410  53.2156  64.5525 0001278  98.7288 261.3849 15.08831120 75766,6917.908,95.438,540.657,538.888,0.0
49410.0,STARLINK-3147,PAYLOAD,2023-03-19 21:53:19,15.08828322,0.0001166,53.2162,63.3618,103.1259,256.9863,0.00013555,1.869e-05,0.0,0 STARLINK-3147,1 49410U 21104C   23078.91203216  .00001869  00000-0  13555-3 0  9996,2 49410  53.2162  63.3618 0001166 103.1259 256.9863 15.08828322 74718,6917.916,95.438,540.588,538.974,0.0
49410.0,STARLINK-3147,PAYLOAD,2023-03-20 05:50:15,15.08846944,0.0001072,53.2156,61.8765,100.62,259.4913,0.001556,0.00024567,0.0,0 STARLINK-3147,1 49410U 21104C   23079.24323285  .00024567  00000-0  15560-2 0  9999,2 49410  53.2156  61.8765 0001072 100.6200 259.4913 15.08846944 75851,6917.859,95.437,540.466,538.983,0.0
49410.0,STARLINK-3147,PAYLOAD,2023-03-20 07:25:38,15.08849445,0.0001072,53.2156,61.5792,98.8551,261.2562,0.0015194,0.00023982,0.0,0 STARLINK-3147,1 49410U 21104C   23079.30947263  .00023982  00000-0  15194-2 0  9997,2 49410  53.2156  61.5792 0001072  98.8551 261.2562 15.08849445 74775,6917.852,95.437,540.458,538.975,0.0
